PK11V01015.58  0.15 K11BK  25.11965  259.54577   60.08422    7.39774  0.5553102  0.13078174   3.8438932    FO 260131    26   1   32 days 0.40         Find_Orb   0000 P/2011 V1                   20111120
PK11W01011.94  0.15 K1329  37.66354  282.52093  161.87118    3.71894  0.2878216  0.09825375   4.6512530    FO 260131   157   1  445 days 0.50         Find_Orb   0000 P/2011 W1                   20130209
PK11Y02015.49  0.15 K123G 359.63854  131.19291  310.00869    6.35170  0.7127354  0.06351443   6.2213952    FO 260131    89   1  194 days 0.43         Find_Orb   0000 P/2011 Y2                   20120316
PK12A030 0.00  0.15 K121L   2.29639  194.29964   27.65462  160.35282  0.8977033  0.32941394   2.0763859    FO 260131    81   1    9 days 87.0         Find_Orb   0000 P/2012 A3                   20120121
PK12B010 8.13  0.15 K156A  40.78007  162.25476   36.17852    7.62350  0.4118585  0.05941306   6.5045131    FO 260131  1133   1 1997-2015 0.47 M-N 00  Find_Orb   0000 P/2012 B1                   20150610
PK12C03024.67  0.15 K122G 359.94398   45.23396  100.77629    0.45614  0.1576101  0.58286332   1.4193567    FO 260131     5   1 22.0 hrs  0.13         Find_Orb   0000 P/2012 C3                   20120216
PK12F02010.89  0.15 K1389   7.49429   33.17839  227.13235   14.72384  0.5422197  0.06190920   6.3284780    FO 260131    93   1  512 days 0.52         Find_Orb   0000 P/2012 F2                   20130809
PK12G01014.78  0.15 K125H   6.54426  265.73461  283.39637   12.17142  0.3299237  0.11571201   4.1707782    FO 260131    21   1   51 days 0.32         Find_Orb   0000 P/2012 G1                   20120517
PK12K03014.31  0.15 K1299 356.94361  172.30576  125.87983   13.20175  0.4260024  0.14320274   3.6182771    FO 260131   130   1  112 days 0.49         Find_Orb   0000 P/2012 K3                   20120909
PK12N00J13.87  0.15 K134B  12.01644  338.40728  315.76719   84.37665  0.8479480  0.03979930   8.4960898    FO 260131  2433   1  273 days 0.31         Find_Orb   0000 P/2012 NJ                   20130411
PK12O01017.96  0.15 K12AK  12.90820  222.11672  111.27739   11.42843  0.5792512  0.14654236   3.5630939    FO 260131    87   1   94 days 0.46         Find_Orb   0000 P/2012 O1                   20121020
PK12O02017.33  0.15 K129L  12.69989  183.04852  120.81384   24.52768  0.5382523  0.14448290   3.5968728    FO 260131    78   1  125 days 0.35         Find_Orb   0000 P/2012 O2                   20120921
PK12T03014.94  0.15 K12B1  12.42214  196.50879  114.29915    9.51434  0.6066652  0.06620636   6.0515912    FO 260131    33   1   23 days 0.28         Find_Orb   0000 P/2012 T3                   20121101
PK12U02012.08  0.15 K1323   3.00890  229.54000  186.79931   10.52588  0.5076149  0.04928458   7.3676450    FO 260131    36   1  106 days 0.35         Find_Orb   0000 P/2012 U2                   20130203
PK13A76L16.13  0.15 K1326   3.25789   27.21188  145.94214  144.86039  0.6845176  0.05960824   6.4903061    FO 260131    51   1   47 days 0.46         Find_Orb   0000 P/2013 AL76                 20130206
PK13E90W12.21  0.15 K145H  68.80055  346.19656  160.35023   31.80522  0.1964249  0.11835707   4.1084049    FO 260131    68   1  456 days 0.40         Find_Orb   0000 P/2013 EW90                 20140517
PK13G01010.19  0.15 K14CA  19.90316   51.22421  221.46924    5.46862  0.5124755  0.05465205   6.8769902    FO 260131   226   1 2013-2014 0.52         Find_Orb   0000 P/2013 G1                   20141210
PK13G04015.14  0.15 K1369  12.58030  214.46767  339.76372    5.92445  0.4102836  0.10566316   4.4311893    FO 260131    40   1   58 days 0.29         Find_Orb   0000 P/2013 G4                   20130609
PK13J02011.86  0.15 K14CT  31.16220   37.90043  289.39402   15.49547  0.6557949  0.06320222   6.2418665    FO 260131  1554   1  600 days 0.40         Find_Orb   0000 P/2013 J2                   20141229
PK13N03013.08  0.15 K13BN 356.06782  323.95204   17.67764    2.17045  0.5922716  0.04867790   7.4287347    FO 260131    44   1  143 days 0.32         Find_Orb   0000 P/2013 N3                   20131123
PK13N05016.64  0.15 K13A1   5.03063  176.24494  187.74664   23.24263  0.7319943  0.05555316   6.8024216    FO 260131    28   1   80 days 0.43         Find_Orb   0000 P/2013 N5                   20131001
PK13P01011.73  0.15 K13B5   9.86589  138.10898  160.79448   18.70423  0.6052206  0.03916133   8.5881134    FO 260131    69   1  101 days 0.48         Find_Orb   0000 P/2013 P1                   20131105
PK13PA4A13.94  0.15 K20BU 349.42189  238.89788  176.38712   10.92423  0.4105004  0.14633909   3.5663925    FO 260131    15   1   43 days 0.55         Find_Orb   0000 P/2013 PA104                20201130
PK13R03014.22  0.15 K1413  28.14445    8.24476  342.68163    0.89887  0.2734374  0.18659738   3.0329531    FO 260131   304   1  124 days 0.46         Find_Orb   0000 P/2013 R3                   20140103
PK13R03a13.30  0.15 K188T 341.46846   11.13907  341.99246    0.86477  0.2744928  0.18661933   3.0327153    FO 260131    24   1 2013-2018 0.56         Find_Orb   0000 P/2013 R3-A                 20180829
PK13R03b13.49  0.15 K188T 341.42050   11.08882  342.05505    0.86646  0.2745098  0.18659745   3.0329523    FO 260131    22   1 2013-2018 0.91         Find_Orb   0000 P/2013 R3-B                 20180829
PK13T01016.56  0.15 K13B4   6.63852  345.83893   10.28392   24.21049  0.6232844  0.06934080   5.8678202    FO 260131    42   1   53 days 0.39         Find_Orb   0000 P/2013 T1                   20131104
PK13T02015.11  0.15 K13CB  27.32825  342.51483    2.63470    9.35320  0.5286036  0.15767264   3.3933747    FO 260131   111   1   89 days 0.47         Find_Orb   0000 P/2013 T2                   20131211
PK13TB7L18.72  0.15 K20CM 359.66736  112.24329    3.31777    9.36552  0.6893817  0.14358027   3.6119319    FO 260131    63   1   45 days 0.65         Find_Orb   0000 P/2013 TL117                20201222
PK13W01017.96  0.15 K1433 359.21744    1.32233  117.85424    4.69965  0.5939151  0.15142411   3.4860962    FO 260131    93   1  114 days 0.55         Find_Orb   0000 P/2013 W1                   20140303
PK13Y46G10.56  0.15 K142K 185.47824  233.39455   56.40413    8.17277  0.4529041  0.16382375   3.3078932    FO 260131    52   1   56 days 0.46         Find_Orb   0000 P/2013 YG46                 20140220
PK14A02015.20  0.15 K1437   8.86548  356.22645  106.66954   24.51131  0.6497445  0.06837439   5.9229820    FO 260131   106   1  119 days 0.51         Find_Orb   0000 P/2014 A2                   20140307
PK14C01015.54  0.15 K1458  25.36024   24.31087  167.99831    2.68289  0.4521543  0.18195990   3.0842691    FO 260131    53   1   97 days 0.50         Find_Orb   0000 P/2014 C1                   20140508
PK14K030 0.00  0.15 K145H   9.39341   81.93569   10.79810  149.88834  0.4157314 29.50892854   0.1037131    FO 260131    54   1 12.2 hrs  22.2         Find_Orb   0000 P/2014 K3                   20140517
PK14L02011.27  0.15 K151J  11.62055  182.77087  149.40524    5.18434  0.6467885  0.06194287   6.3261840    FO 260131  1011   1  226 days 0.55         Find_Orb   0000 P/2014 L2                   20150119
PK14L03015.69  0.15 K14AU   5.20925  178.60767  115.56611    6.26397  0.7730883  0.04220307   8.1703383    FO 260131   190   1  150 days 0.46         Find_Orb   0000 P/2014 L3                   20141030
PK14M04014.16  0.15 K14BI 357.21545  145.28078  265.05831    3.34521  0.5955309  0.07031731   5.8133688    FO 260131    69   1  142 days 0.48         Find_Orb   0000 P/2014 M4                   20141118
PK14O03010.39  0.15 K148M   6.01105  204.36823   87.70378    7.80647  0.3850153  0.04754981   7.5457689    FO 260131    53   1  448 days 0.45         Find_Orb   0000 P/2014 O3                   20140822
PK14U04017.49  0.15 K14BH  15.92125  347.73004   12.04419    6.45659  0.4709907  0.15152513   3.4845466    FO 260131    61   1   76 days 0.47         Find_Orb   0000 P/2014 U4                   20141117
PK14V01013.36  0.15 K14BH 355.23203  177.51608  166.22549   22.47746  0.5394965  0.07463348   5.5870206    FO 260131    39   1    9 days 0.44         Find_Orb   0000 P/2014 V1                   20141117
PK14W04010.78  0.15 K173U  26.49514   67.59989   33.34243   15.27485  0.3535162  0.05821361   6.5935561    FO 260131    90   1 2014-2017 0.34         Find_Orb   0000 P/2014 W4                   20170330
PK14X01014.58  0.15 K163F  27.25914   34.34774   61.53072   25.98065  0.7098664  0.06304763   6.2520659    FO 260131   604   1  559 days 0.46         Find_Orb   0000 P/2014 X1                   20160315
PK15A03020.07  0.15 K156C   5.26446  249.62183  277.07568  172.51028  0.8457337  0.04824432   7.4731773    FO 260131    56   1  156 days 0.31         Find_Orb   0000 P/2015 A3                   20150612
PK15B010 8.65  0.15 K1634   5.38700  188.53422  353.35132   18.05464  0.3784957  0.03305622   9.6153971    FO 260131    92   1  461 days 10.2         Find_Orb   0000 P/2015 B1                   20160304
PK15B04011.74  0.15 K164R  16.80587  227.82346  266.42985    1.74391  0.5673047  0.03859085   8.6725435    FO 260131    78   1  468 days 0.28         Find_Orb   0000 P/2015 B4                   20160427
PK15C01012.78  0.15 K1666  23.38932  178.38722  348.86028   13.87981  0.5613323  0.05820053   6.5945441    FO 260131   283   1  500 days 0.37         Find_Orb   0000 P/2015 C1                   20160606
PK15D050 9.57  0.15 K156C  15.06341   40.19050   74.50008   20.39654  0.4986253  0.03573542   9.1285854    FO 260131   109   1  554 days 0.44         Find_Orb   0000 P/2015 D5                   20150612
PK15D06011.05  0.15 K155J 356.80290  126.52276   46.24291   20.20125  0.3706428  0.05052406   7.2466494    FO 260131    32   1   81 days 0.44         Find_Orb   0000 P/2015 D6                   20150519
PK15K05013.67  0.15 K157E   2.13919  106.00175  134.26833   39.98749  0.5539796  0.05689449   6.6950820    FO 260131    55   1   65 days 0.41         Find_Orb   0000 P/2015 K5                   20150714
